{
  "links" : {
    "next" : "https://api.nasa.gov/neo/rest/v1/feed?start_date=2011-10-23&end_date=2011-10-23&detailed=true&api_key=t0TVs3DtDT2H8Oy2Zy8m2eVrNsAVKAexjcZXUckd",
    "prev" : "https://api.nasa.gov/neo/rest/v1/feed?start_date=2011-10-21&end_date=2011-10-21&detailed=true&api_key=t0TVs3DtDT2H8Oy2Zy8m2eVrNsAVKAexjcZXUckd",
    "self" : "https://api.nasa.gov/neo/rest/v1/feed?start_date=2011-10-22&end_date=2011-10-22&detailed=true&api_key=t0TVs3DtDT2H8Oy2Zy8m2eVrNsAVKAexjcZXUckd"
  },
  "element_count" : 7,
  "near_earth_objects" : {
    "2011-10-22" : [ {
      "links" : {
        "self" : "https://api.nasa.gov/neo/rest/v1/neo/2423100?api_key=t0TVs3DtDT2H8Oy2Zy8m2eVrNsAVKAexjcZXUckd"
      },
      "neo_reference_id" : "2423100",
      "name" : "423100 (2004 BX1)",
      "nasa_jpl_url" : "http://ssd.jpl.nasa.gov/sbdb.cgi?sstr=2423100",
      "absolute_magnitude_h" : 18.4,
      "estimated_diameter" : {
        "kilometers" : {
          "estimated_diameter_min" : 0.5553349116,
          "estimated_diameter_max" : 1.2417666126
        },
        "meters" : {
          "estimated_diameter_min" : 555.334911581,
          "estimated_diameter_max" : 1241.766612574
        },
        "miles" : {
          "estimated_diameter_min" : 0.3450690093,
          "estimated_diameter_max" : 0.7715977618
        },
        "feet" : {
          "estimated_diameter_min" : 1821.9649913114,
          "estimated_diameter_max" : 4074.0375731972
        }
      },
      "is_potentially_hazardous_asteroid" : false,
      "close_approach_data" : [ {
        "close_approach_date" : "2011-10-22",
        "epoch_date_close_approach" : 1319266800000,
        "relative_velocity" : {
          "kilometers_per_second" : "39.1937237768",
          "kilometers_per_hour" : "141097.4055964994",
          "miles_per_hour" : "87672.440716336"
        },
        "miss_distance" : {
          "astronomical" : "0.4547737025",
          "lunar" : "176.9069671631",
          "kilometers" : "68033176",
          "miles" : "42273856"
        },
        "orbiting_body" : "Earth"
      } ],
      "orbital_data" : {
        "orbit_id" : "27",
        "orbit_determination_date" : "2017-04-06 09:21:06",
        "orbit_uncertainty" : "0",
        "minimum_orbit_intersection" : ".287702",
        "jupiter_tisserand_invariant" : "2.858",
        "epoch_osculation" : "2458000.5",
        "eccentricity" : ".8379341068611912",
        "semi_major_axis" : "2.411401970069496",
        "inclination" : "19.47848327654851",
        "ascending_node_longitude" : "92.78406166326562",
        "orbital_period" : "1367.737782108281",
        "perihelion_distance" : ".3908060139959959",
        "perihelion_argument" : "168.8241836607934",
        "aphelion_distance" : "4.431997926142995",
        "perihelion_time" : "2458556.963687001359",
        "mean_anomaly" : "213.5341130873069",
        "mean_motion" : ".2632083464456782",
        "equinox" : "J2000"
      }
    }, {
      "links" : {
        "self" : "https://api.nasa.gov/neo/rest/v1/neo/3576629?api_key=t0TVs3DtDT2H8Oy2Zy8m2eVrNsAVKAexjcZXUckd"
      },
      "neo_reference_id" : "3576629",
      "name" : "(2011 QG9)",
      "nasa_jpl_url" : "http://ssd.jpl.nasa.gov/sbdb.cgi?sstr=3576629",
      "absolute_magnitude_h" : 20.3,
      "estimated_diameter" : {
        "kilometers" : {
          "estimated_diameter_min" : 0.2315021222,
          "estimated_diameter_max" : 0.5176544822
        },
        "meters" : {
          "estimated_diameter_min" : 231.5021222103,
          "estimated_diameter_max" : 517.6544821978
        },
        "miles" : {
          "estimated_diameter_min" : 0.1438487052,
          "estimated_diameter_max" : 0.3216554833
        },
        "feet" : {
          "estimated_diameter_min" : 759.5214226325,
          "estimated_diameter_max" : 1698.3415313737
        }
      },
      "is_potentially_hazardous_asteroid" : false,
      "close_approach_data" : [ {
        "close_approach_date" : "2011-10-22",
        "epoch_date_close_approach" : 1319266800000,
        "relative_velocity" : {
          "kilometers_per_second" : "7.4623208361",
          "kilometers_per_hour" : "26864.3550099538",
          "miles_per_hour" : "16692.4654782683"
        },
        "miss_distance" : {
          "astronomical" : "0.2313187827",
          "lunar" : "89.9830093384",
          "kilometers" : "34604800",
          "miles" : "21502424"
        },
        "orbiting_body" : "Earth"
      } ],
      "orbital_data" : {
        "orbit_id" : "20",
        "orbit_determination_date" : "2017-04-06 08:52:59",
        "orbit_uncertainty" : "0",
        "minimum_orbit_intersection" : ".19422",
        "jupiter_tisserand_invariant" : "3.044",
        "epoch_osculation" : "2458000.5",
        "eccentricity" : ".6035183490605425",
        "semi_major_axis" : "2.71844078681334",
        "inclination" : "11.44962927635924",
        "ascending_node_longitude" : "310.2103075990198",
        "orbital_period" : "1637.111439900836",
        "perihelion_distance" : "1.077811891136911",
        "perihelion_argument" : "73.46064263374798",
        "aphelion_distance" : "4.359069682489769",
        "perihelion_time" : "2457490.810345348594",
        "mean_anomaly" : "112.0805042359368",
        "mean_motion" : ".2198995078928812",
        "equinox" : "J2000"
      }
    }, {
      "links" : {
        "self" : "https://api.nasa.gov/neo/rest/v1/neo/3580321?api_key=t0TVs3DtDT2H8Oy2Zy8m2eVrNsAVKAexjcZXUckd"
      },
      "neo_reference_id" : "3580321",
      "name" : "(2011 SJ189)",
      "nasa_jpl_url" : "http://ssd.jpl.nasa.gov/sbdb.cgi?sstr=3580321",
      "absolute_magnitude_h" : 22.6,
      "estimated_diameter" : {
        "kilometers" : {
          "estimated_diameter_min" : 0.0802703167,
          "estimated_diameter_max" : 0.1794898848
        },
        "meters" : {
          "estimated_diameter_min" : 80.2703167283,
          "estimated_diameter_max" : 179.4898847799
        },
        "miles" : {
          "estimated_diameter_min" : 0.049877647,
          "estimated_diameter_max" : 0.1115298092
        },
        "feet" : {
          "estimated_diameter_min" : 263.3540659348,
          "estimated_diameter_max" : 588.8775935812
        }
      },
      "is_potentially_hazardous_asteroid" : false,
      "close_approach_data" : [ {
        "close_approach_date" : "2011-10-22",
        "epoch_date_close_approach" : 1319266800000,
        "relative_velocity" : {
          "kilometers_per_second" : "4.0583393951",
          "kilometers_per_hour" : "14610.0218222829",
          "miles_per_hour" : "9078.0993928513"
        },
        "miss_distance" : {
          "astronomical" : "0.1740823078",
          "lunar" : "67.7180175781",
          "kilometers" : "26042342",
          "miles" : "16181962"
        },
        "orbiting_body" : "Earth"
      } ],
      "orbital_data" : {
        "orbit_id" : "13",
        "orbit_determination_date" : "2017-04-06 08:52:37",
        "orbit_uncertainty" : "5",
        "minimum_orbit_intersection" : ".155923",
        "jupiter_tisserand_invariant" : "3.878",
        "epoch_osculation" : "2458000.5",
        "eccentricity" : ".386828143222805",
        "semi_major_axis" : "1.875680941634378",
        "inclination" : "4.642256709634405",
        "ascending_node_longitude" : "23.40645594887074",
        "orbital_period" : "938.2895411011498",
        "perihelion_distance" : "1.150114765703549",
        "perihelion_argument" : "8.333294367118329",
        "aphelion_distance" : "2.601247117565207",
        "perihelion_time" : "2457732.423720576159",
        "mean_anomaly" : "102.8546694438525",
        "mean_motion" : ".3836768760925485",
        "equinox" : "J2000"
      }
    } ]
  }
}